[{"OBJECT_NAME":"STARLINK-30454","OBJECT_ID":"2023-147C","EPOCH":"2025-12-01T18:19:35.700096","MEAN_MOTION":15.02544888,"ECCENTRICITY":0.0001188,"INCLINATION":43.0021,"RA_OF_ASC_NODE":138.4758,"ARG_OF_PERICENTER":270.5377,"MEAN_ANOMALY":89.5329,"EPHEMERIS_TYPE":0,"CLASSIFICATION_TYPE":"U","NORAD_CAT_ID":57915,"ELEMENT_SET_NO":999,"REV_AT_EPOCH":12185,"BSTAR":1.4676e-5,"MEAN_MOTION_DOT":-5.0e-8,"MEAN_MOTION_DDOT":0},{"OBJECT_NAME":"STARLINK-30501","OBJECT_ID":"2023-147E","EPOCH":"2025-12-01T18:14:48.180768","MEAN_MOTION":15.02532944,"ECCENTRICITY":0.0001128,"INCLINATION":43.0033,"RA_OF_ASC_NODE":138.4517,"ARG_OF_PERICENTER":241.6518,"MEAN_ANOMALY":118.421,"EPHEMERIS_TYPE":0,"CLASSIFICATION_TYPE":"U","NORAD_CAT_ID":57917,"ELEMENT_SET_NO":999,"REV_AT_EPOCH":12188,"BSTAR":1.8865e-5,"MEAN_MOTION_DOT":5.1e-7,"MEAN_MOTION_DDOT":0},{"OBJECT_NAME":"STARLINK-30499","OBJECT_ID":"2023-147F","EPOCH":"2025-12-01T10:12:46.833120","MEAN_MOTION":15.27563143,"ECCENTRICITY":0.0002274,"INCLINATION":43.0061,"RA_OF_ASC_NODE":15.1648,"ARG_OF_PERICENTER":268.2278,"MEAN_ANOMALY":91.8313,"EPHEMERIS_TYPE":0,"CLASSIFICATION_TYPE":"U","NORAD_CAT_ID":57918,"ELEMENT_SET_NO":999,"REV_AT_EPOCH":12330,"BSTAR":6.3878e-5,"MEAN_MOTION_DOT":1.495e-5,"MEAN_MOTION_DDOT":0},{"OBJECT_NAME":"STARLINK-30496","OBJECT_ID":"2023-147G","EPOCH":"2025-12-01T11:42:17.896032","MEAN_MOTION":15.02534835,"ECCENTRICITY":0.0001399,"INCLINATION":43.0019,"RA_OF_ASC_NODE":139.8462,"ARG_OF_PERICENTER":264.0374,"MEAN_ANOMALY":96.0309,"EPHEMERIS_TYPE":0,"CLASSIFICATION_TYPE":"U","NORAD_CAT_ID":57919,"ELEMENT_SET_NO":999,"REV_AT_EPOCH":12184,"BSTAR":4.9499e-5,"MEAN_MOTION_DOT":4.65e-6,"MEAN_MOTION_DDOT":0},{"OBJECT_NAME":"STARLINK-30485","OBJECT_ID":"2023-147H","EPOCH":"2025-12-01T13:13:13.872000","MEAN_MOTION":15.02538227,"ECCENTRICITY":0.0001254,"INCLINATION":43.0032,"RA_OF_ASC_NODE":139.4606,"ARG_OF_PERICENTER":265.7462,"MEAN_ANOMALY":94.3237,"EPHEMERIS_TYPE":0,"CLASSIFICATION_TYPE":"U","NORAD_CAT_ID":57920,"ELEMENT_SET_NO":999,"REV_AT_EPOCH":12185,"BSTAR":6.9802e-5,"MEAN_MOTION_DOT":7.39e-6,"MEAN_MOTION_DDOT":0},{"OBJECT_NAME":"STARLINK-30492","OBJECT_ID":"2023-147J","EPOCH":"2025-12-01T17:55:37.751808","MEAN_MOTION":15.02533818,"ECCENTRICITY":0.0002451,"INCLINATION":43.0076,"RA_OF_ASC_NODE":138.3481,"ARG_OF_PERICENTER":268.2535,"MEAN_ANOMALY":91.8027,"EPHEMERIS_TYPE":0,"CLASSIFICATION_TYPE":"U","NORAD_CAT_ID":57921,"ELEMENT_SET_NO":999,"REV_AT_EPOCH":12185,"BSTAR":0.00013806,"MEAN_MOTION_DOT":1.661e-5,"MEAN_MOTION_DDOT":0},{"OBJECT_NAME":"STARLINK-30440","OBJECT_ID":"2023-147L","EPOCH":"2025-12-01T17:50:49.733088","MEAN_MOTION":15.02534152,"ECCENTRICITY":0.0001246,"INCLINATION":43.002,"RA_OF_ASC_NODE":138.324,"ARG_OF_PERICENTER":269.0212,"MEAN_ANOMALY":91.0487,"EPHEMERIS_TYPE":0,"CLASSIFICATION_TYPE":"U","NORAD_CAT_ID":57923,"ELEMENT_SET_NO":999,"REV_AT_EPOCH":12188,"BSTAR":1.4785e-5,"MEAN_MOTION_DOT":-4.0e-8,"MEAN_MOTION_DDOT":0},{"OBJECT_NAME":"STARLINK-30487","OBJECT_ID":"2023-147M","EPOCH":"2025-12-01T17:22:03.361728","MEAN_MOTION":15.02533443,"ECCENTRICITY":0.0001317,"INCLINATION":43.0026,"RA_OF_ASC_NODE":138.1583,"ARG_OF_PERICENTER":266.3235,"MEAN_ANOMALY":93.7457,"EPHEMERIS_TYPE":0,"CLASSIFICATION_TYPE":"U","NORAD_CAT_ID":57924,"ELEMENT_SET_NO":999,"REV_AT_EPOCH":12188,"BSTAR":1.1201e-5,"MEAN_MOTION_DOT":-5.2e-7,"MEAN_MOTION_DDOT":0},{"OBJECT_NAME":"STARLINK-30452","OBJECT_ID":"2023-147N","EPOCH":"2025-12-01T17:46:01.641792","MEAN_MOTION":15.02536881,"ECCENTRICITY":0.0001539,"INCLINATION":43.0043,"RA_OF_ASC_NODE":138.2962,"ARG_OF_PERICENTER":268.5211,"MEAN_ANOMALY":91.5455,"EPHEMERIS_TYPE":0,"CLASSIFICATION_TYPE":"U","NORAD_CAT_ID":57925,"ELEMENT_SET_NO":999,"REV_AT_EPOCH":12185,"BSTAR":6.5995e-5,"MEAN_MOTION_DOT":6.88e-6,"MEAN_MOTION_DDOT":0},{"OBJECT_NAME":"STARLINK-30468","OBJECT_ID":"2023-147P","EPOCH":"2025-12-01T17:41:14.769600","MEAN_MOTION":15.02532229,"ECCENTRICITY":8.34e-5,"INCLINATION":43.002,"RA_OF_ASC_NODE":138.2804,"ARG_OF_PERICENTER":279.2167,"MEAN_ANOMALY":80.8581,"EPHEMERIS_TYPE":0,"CLASSIFICATION_TYPE":"U","NORAD_CAT_ID":57926,"ELEMENT_SET_NO":999,"REV_AT_EPOCH":12185,"BSTAR":0.00017838,"MEAN_MOTION_DOT":2.207e-5,"MEAN_MOTION_DDOT":0},{"OBJECT_NAME":"STARLINK-30459","OBJECT_ID":"2023-147Q","EPOCH":"2025-12-01T20:00:01.999008","MEAN_MOTION":15.64709253,"ECCENTRICITY":0.0022252,"INCLINATION":42.9912,"RA_OF_ASC_NODE":344.2081,"ARG_OF_PERICENTER":106.8685,"MEAN_ANOMALY":17.1479,"EPHEMERIS_TYPE":0,"CLASSIFICATION_TYPE":"U","NORAD_CAT_ID":57927,"ELEMENT_SET_NO":999,"REV_AT_EPOCH":589,"BSTAR":0.0052432,"MEAN_MOTION_DOT":0.00566568,"MEAN_MOTION_DDOT":0},{"OBJECT_NAME":"STARLINK-30448","OBJECT_ID":"2023-147R","EPOCH":"2025-12-01T17:31:37.579584","MEAN_MOTION":15.02537271,"ECCENTRICITY":0.0001462,"INCLINATION":43.0038,"RA_OF_ASC_NODE":138.2243,"ARG_OF_PERICENTER":271.8827,"MEAN_ANOMALY":88.1847,"EPHEMERIS_TYPE":0,"CLASSIFICATION_TYPE":"U","NORAD_CAT_ID":57928,"ELEMENT_SET_NO":999,"REV_AT_EPOCH":12185,"BSTAR":4.9275e-5,"MEAN_MOTION_DOT":4.62e-6,"MEAN_MOTION_DDOT":0},{"OBJECT_NAME":"STARLINK-30476","OBJECT_ID":"2023-147T","EPOCH":"2025-12-01T20:00:01.999008","MEAN_MOTION":15.23482143,"ECCENTRICITY":0.0013715,"INCLINATION":42.9983,"RA_OF_ASC_NODE":106.2606,"ARG_OF_PERICENTER":272.8601,"MEAN_ANOMALY":45.1464,"EPHEMERIS_TYPE":0,"CLASSIFICATION_TYPE":"U","NORAD_CAT_ID":57930,"ELEMENT_SET_NO":999,"REV_AT_EPOCH":587,"BSTAR":0.0044083,"MEAN_MOTION_DOT":0.00108821,"MEAN_MOTION_DDOT":0},{"OBJECT_NAME":"STARLINK-30488","OBJECT_ID":"2023-147U","EPOCH":"2025-12-01T17:26:51.276768","MEAN_MOTION":15.02534948,"ECCENTRICITY":9.16e-5,"INCLINATION":43.002,"RA_OF_ASC_NODE":138.2008,"ARG_OF_PERICENTER":262.1966,"MEAN_ANOMALY":97.8772,"EPHEMERIS_TYPE":0,"CLASSIFICATION_TYPE":"U","NORAD_CAT_ID":57931,"ELEMENT_SET_NO":999,"REV_AT_EPOCH":12188,"BSTAR":4.2815e-5,"MEAN_MOTION_DOT":3.75e-6,"MEAN_MOTION_DDOT":0},{"OBJECT_NAME":"STARLINK-30471","OBJECT_ID":"2023-147V","EPOCH":"2025-12-01T12:15:41.613120","MEAN_MOTION":15.0253698,"ECCENTRICITY":0.0001261,"INCLINATION":43.0024,"RA_OF_ASC_NODE":139.1572,"ARG_OF_PERICENTER":269.1234,"MEAN_ANOMALY":90.9464,"EPHEMERIS_TYPE":0,"CLASSIFICATION_TYPE":"U","NORAD_CAT_ID":57932,"ELEMENT_SET_NO":999,"REV_AT_EPOCH":12182,"BSTAR":7.0521e-5,"MEAN_MOTION_DOT":7.49e-6,"MEAN_MOTION_DDOT":0},{"OBJECT_NAME":"STARLINK-30461","OBJECT_ID":"2023-147W","EPOCH":"2025-12-01T17:17:15.868320","MEAN_MOTION":15.02538356,"ECCENTRICITY":0.0001025,"INCLINATION":43.0015,"RA_OF_ASC_NODE":138.154,"ARG_OF_PERICENTER":261.6344,"MEAN_ANOMALY":98.4382,"EPHEMERIS_TYPE":0,"CLASSIFICATION_TYPE":"U","NORAD_CAT_ID":57933,"ELEMENT_SET_NO":999,"REV_AT_EPOCH":12185,"BSTAR":-1.8446e-5,"MEAN_MOTION_DOT":-4.53e-6,"MEAN_MOTION_DDOT":0},{"OBJECT_NAME":"STARLINK-30712","OBJECT_ID":"2023-148A","EPOCH":"2025-12-01T17:12:58.937184","MEAN_MOTION":15.30190512,"ECCENTRICITY":0.0001109,"INCLINATION":53.1604,"RA_OF_ASC_NODE":119.2708,"ARG_OF_PERICENTER":67.0163,"MEAN_ANOMALY":293.0955,"EPHEMERIS_TYPE":0,"CLASSIFICATION_TYPE":"U","NORAD_CAT_ID":57935,"ELEMENT_SET_NO":999,"REV_AT_EPOCH":12342,"BSTAR":2.0597e-5,"MEAN_MOTION_DOT":2.51e-6,"MEAN_MOTION_DDOT":0},{"OBJECT_NAME":"STARLINK-30716","OBJECT_ID":"2023-148B","EPOCH":"2025-12-01T16:21:27.419040","MEAN_MOTION":15.30189992,"ECCENTRICITY":0.000118,"INCLINATION":53.1598,"RA_OF_ASC_NODE":119.6698,"ARG_OF_PERICENTER":82.1503,"MEAN_ANOMALY":277.9631,"EPHEMERIS_TYPE":0,"CLASSIFICATION_TYPE":"U","NORAD_CAT_ID":57936,"ELEMENT_SET_NO":999,"REV_AT_EPOCH":12341,"BSTAR":3.3164e-5,"MEAN_MOTION_DOT":6.23e-6,"MEAN_MOTION_DDOT":0},{"OBJECT_NAME":"STARLINK-30400","OBJECT_ID":"2023-148C","EPOCH":"2025-12-01T17:17:31.868736","MEAN_MOTION":15.30189293,"ECCENTRICITY":9.65e-5,"INCLINATION":53.1611,"RA_OF_ASC_NODE":119.2506,"ARG_OF_PERICENTER":87.8031,"MEAN_ANOMALY":272.308,"EPHEMERIS_TYPE":0,"CLASSIFICATION_TYPE":"U","NORAD_CAT_ID":57937,"ELEMENT_SET_NO":999,"REV_AT_EPOCH":12342,"BSTAR":6.4267e-5,"MEAN_MOTION_DOT":1.544e-5,"MEAN_MOTION_DDOT":0},{"OBJECT_NAME":"STARLINK-30710","OBJECT_ID":"2023-148D","EPOCH":"2025-12-01T15:25:23.429856","MEAN_MOTION":15.30192506,"ECCENTRICITY":9.88e-5,"INCLINATION":53.1607,"RA_OF_ASC_NODE":109.6389,"ARG_OF_PERICENTER":79.2482,"MEAN_ANOMALY":280.863,"EPHEMERIS_TYPE":0,"CLASSIFICATION_TYPE":"U","NORAD_CAT_ID":57938,"ELEMENT_SET_NO":999,"REV_AT_EPOCH":12354,"BSTAR":-2.1675e-5,"MEAN_MOTION_DOT":-1.001e-5,"MEAN_MOTION_DDOT":0},{"OBJECT_NAME":"STARLINK-30714","OBJECT_ID":"2023-148E","EPOCH":"2025-12-01T14:56:30.905088","MEAN_MOTION":15.30193686,"ECCENTRICITY":0.0001102,"INCLINATION":53.1611,"RA_OF_ASC_NODE":119.9975,"ARG_OF_PERICENTER":74.2681,"MEAN_ANOMALY":285.8441,"EPHEMERIS_TYPE":0,"CLASSIFICATION_TYPE":"U","NORAD_CAT_ID":57939,"ELEMENT_SET_NO":999,"REV_AT_EPOCH":12340,"BSTAR":4.2155e-5,"MEAN_MOTION_DOT":8.89e-6,"MEAN_MOTION_DDOT":0},{"OBJECT_NAME":"STARLINK-30711","OBJECT_ID":"2023-148F","EPOCH":"2025-12-01T16:26:01.168800","MEAN_MOTION":15.30191053,"ECCENTRICITY":0.0001217,"INCLINATION":53.1591,"RA_OF_ASC_NODE":119.695,"ARG_OF_PERICENTER":77.3824,"MEAN_ANOMALY":282.7312,"EPHEMERIS_TYPE":0,"CLASSIFICATION_TYPE":"U","NORAD_CAT_ID":57940,"ELEMENT_SET_NO":999,"REV_AT_EPOCH":12341,"BSTAR":6.7773e-5,"MEAN_MOTION_DOT":1.648e-5,"MEAN_MOTION_DDOT":0},{"OBJECT_NAME":"STARLINK-30715","OBJECT_ID":"2023-148G","EPOCH":"2025-12-01T15:13:12.440064","MEAN_MOTION":15.30188721,"ECCENTRICITY":0.0001195,"INCLINATION":53.1601,"RA_OF_ASC_NODE":109.4456,"ARG_OF_PERICENTER":92.6139,"MEAN_ANOMALY":267.4998,"EPHEMERIS_TYPE":0,"CLASSIFICATION_TYPE":"U","NORAD_CAT_ID":57941,"ELEMENT_SET_NO":999,"REV_AT_EPOCH":12355,"BSTAR":1.5882e-5,"MEAN_MOTION_DOT":1.11e-6,"MEAN_MOTION_DDOT":0}]
